{"type": "FeatureCollection", "features": [ {"type": "Feature", "properties": {"norad_id": 40315, "name": "COSMOS 2501 (702K)", "group": "gnss", "lat": -57.39208021841432, "lon": 67.76818438917343, "alt_km": 19100.10983498906, "timestamp": "2025-12-11T10:53:16.127299+00:00", "meta": {"OBJECT_NAME": "COSMOS 2501 (702K)", "OBJECT_ID": "2014-075A", "EPOCH": "2025-12-07T20:13:51.362112", "MEAN_MOTION": 2.13101338, "ECCENTRICITY": 0.00201356, "INCLINATION": 63.6139, "RA_OF_ASC_NODE": 196.9947, "ARG_OF_PERICENTER": 204.4913, "MEAN_ANOMALY": 155.4908, "EPHEMERIS_TYPE": 0, "CLASSIFICATION_TYPE": "U", "NORAD_CAT_ID": 40315, "ELEMENT_SET_NO": 999, "REV_AT_EPOCH": 8577, "BSTAR": 0, "MEAN_MOTION_DOT": 5.4e-07, "MEAN_MOTION_DDOT": 0}, "tle": {"line1": "1 40315U 14075A   25341.84295558  .00000054  00000+0  00000+0 0  9998", "line2": "2 40315  63.6139 196.9947 0020135 204.4913 155.4908  2.13101338 85773"}}, "geometry": {"type": "Point", "coordinates": [67.76818438917343, -57.39208021841432]}}, {"type": "Feature", "properties": {"norad_id": 40534, "name": "GPS BIIF-9  (PRN 26)", "group": "gnss", "lat": -52.05137633696499, "lon": 105.60206763767155, "alt_km": 20399.38626803416, "timestamp": "2025-12-11T10:53:16.127310+00:00", "meta": {"OBJECT_NAME": "GPS BIIF-9  (PRN 26)", "OBJECT_ID": "2015-013A", "EPOCH": "2025-12-10T02:18:43.739712", "MEAN_MOTION": 2.0056274, "ECCENTRICITY": 0.010694, "INCLINATION": 53.1981, "RA_OF_ASC_NODE": 211.9997, "ARG_OF_PERICENTER": 38.4152, "MEAN_ANOMALY": 322.4192, "EPHEMERIS_TYPE": 0, "CLASSIFICATION_TYPE": "U", "NORAD_CAT_ID": 40534, "ELEMENT_SET_NO": 999, "REV_AT_EPOCH": 7803, "BSTAR": 0, "MEAN_MOTION_DOT": 1.5e-07, "MEAN_MOTION_DDOT": 0}, "tle": {"line1": "1 40534U 15013A   25344.09633958  .00000015  00000+0  00000+0 0  9991", "line2": "2 40534  53.1981 211.9997 0106940  38.4152 322.4192  2.00562740 78033"}}, "geometry": {"type": "Point", "coordinates": [105.60206763767155, -52.05137633696499]}}, {"type": "Feature", "properties": {"norad_id": 40544, "name": "GSAT0203 (GALILEO 7)", "group": "gnss", "lat": -26.348843651668066, "lon": -32.17629948364712, "alt_km": 23214.982562297286, "timestamp": "2025-12-11T10:53:16.127321+00:00", "meta": {"OBJECT_NAME": "GSAT0203 (GALILEO 7)", "OBJECT_ID": "2015-017A", "EPOCH": "2025-12-07T23:40:17.742144", "MEAN_MOTION": 1.70475816, "ECCENTRICITY": 0.00065218, "INCLINATION": 56.8473, "RA_OF_ASC_NODE": 346.8096, "ARG_OF_PERICENTER": 270.7048, "MEAN_ANOMALY": 89.2382, "EPHEMERIS_TYPE": 0, "CLASSIFICATION_TYPE": "U", "NORAD_CAT_ID": 40544, "ELEMENT_SET_NO": 999, "REV_AT_EPOCH": 6594, "BSTAR": 0, "MEAN_MOTION_DOT": -8.6e-07, "MEAN_MOTION_DDOT": 0}, "tle": {"line1": "1 40544U 15017A   25341.98631646 -.00000086  00000+0  00000+0 0  9992", "line2": "2 40544  56.8473 346.8096 0006521 270.7048  89.2382  1.70475816 65945"}}, "geometry": {"type": "Point", "coordinates": [-32.17629948364712, -26.348843651668066]}}, {"type": "Feature", "properties": {"norad_id": 40545, "name": "GSAT0204 (GALILEO 8)", "group": "gnss", "lat": 7.436380917110605, "lon": 161.83825902151344, "alt_km": 23221.871468417892, "timestamp": "2025-12-11T10:53:16.127332+00:00", "meta": {"OBJECT_NAME": "GSAT0204 (GALILEO 8)", "OBJECT_ID": "2015-017B", "EPOCH": "2025-12-10T14:06:53.390016", "MEAN_MOTION": 1.70475544, "ECCENTRICITY": 0.0006245, "INCLINATION": 56.8532, "RA_OF_ASC_NODE": 346.7563, "ARG_OF_PERICENTER": 262.7612, "MEAN_ANOMALY": 97.1843, "EPHEMERIS_TYPE": 0, "CLASSIFICATION_TYPE": "U", "NORAD_CAT_ID": 40545, "ELEMENT_SET_NO": 999, "REV_AT_EPOCH": 2903, "BSTAR": 0, "MEAN_MOTION_DOT": -8.8e-07, "MEAN_MOTION_DDOT": 0}, "tle": {"line1": "1 40545U 15017B   25344.58811794 -.00000088  00000+0  00000+0 0  9998", "line2": "2 40545  56.8532 346.7563 0006245 262.7612  97.1843  1.70475544 29039"}}, "geometry": {"type": "Point", "coordinates": [161.83825902151344, 7.436380917110605]}}, {"type": "Feature", "properties": {"norad_id": 40549, "name": "BEIDOU-3S IGSO-1S (C31)", "group": "gnss", "lat": 29.15993476365049, "lon": -33.92580474250157, "alt_km": 35916.220852485116, "timestamp": "2025-12-11T10:53:16.127344+00:00", "meta": {"OBJECT_NAME": "BEIDOU-3S IGSO-1S (C31)", "OBJECT_ID": "2015-019A", "EPOCH": "2025-12-07T20:38:38.671584", "MEAN_MOTION": 1.00293516, "ECCENTRICITY": 0.00368211, "INCLINATION": 49.562, "RA_OF_ASC_NODE": 297.7693, "ARG_OF_PERICENTER": 193.8977, "MEAN_ANOMALY": 348.5751, "EPHEMERIS_TYPE": 0, "CLASSIFICATION_TYPE": "U", "NORAD_CAT_ID": 40549, "ELEMENT_SET_NO": 999, "REV_AT_EPOCH": 3915, "BSTAR": 0, "MEAN_MOTION_DOT": -1.86e-06, "MEAN_MOTION_DDOT": 0}, "tle": {"line1": "1 40549U 15019A   25341.86016981 -.00000186  00000+0  00000+0 0  9996", "line2": "2 40549  49.5620 297.7693 0036821 193.8977 348.5751  1.00293516 39155"}}, "geometry": {"type": "Point", "coordinates": [-33.92580474250157, 29.15993476365049]}}, {"type": "Feature", "properties": {"norad_id": 40730, "name": "GPS BIIF-10 (PRN 08)", "group": "gnss", "lat": 27.47379883798917, "lon": 72.74417540846466, "alt_km": 20316.860069710914, "timestamp": "2025-12-11T10:53:16.127357+00:00", "meta": {"OBJECT_NAME": "GPS BIIF-10 (PRN 08)", "OBJECT_ID": "2015-033A", "EPOCH": "2025-12-10T18:08:59.885952", "MEAN_MOTION": 2.00565667, "ECCENTRICITY": 0.01108361, "INCLINATION": 54.1324, "RA_OF_ASC_NODE": 274.8545, "ARG_OF_PERICENTER": 26.7633, "MEAN_ANOMALY": 333.8214, "EPHEMERIS_TYPE": 0, "CLASSIFICATION_TYPE": "U", "NORAD_CAT_ID": 40730, "ELEMENT_SET_NO": 999, "REV_AT_EPOCH": 7621, "BSTAR": 0, "MEAN_MOTION_DOT": -6.3e-07, "MEAN_MOTION_DDOT": 0}, "tle": {"line1": "1 40730U 15033A   25344.75624868 -.00000063  00000+0  00000+0 0  9998", "line2": "2 40730  54.1324 274.8545 0110836  26.7633 333.8214  2.00565667 76213"}}, "geometry": {"type": "Point", "coordinates": [72.74417540846466, 27.47379883798917]}}, {"type": "Feature", "properties": {"norad_id": 40748, "name": "BEIDOU-3S M2S (C58)", "group": "gnss", "lat": 33.51614618351923, "lon": -23.925342823075074, "alt_km": 21548.641933722523, "timestamp": "2025-12-11T10:53:16.127369+00:00", "meta": {"OBJECT_NAME": "BEIDOU-3S M2S (C58)", "OBJECT_ID": "2015-037A", "EPOCH": "2025-12-09T05:49:19.735392", "MEAN_MOTION": 1.86228936, "ECCENTRICITY": 0.00124384, "INCLINATION": 55.042, "RA_OF_ASC_NODE": 308.5839, "ARG_OF_PERICENTER": 267.3919, "MEAN_ANOMALY": 92.4547, "EPHEMERIS_TYPE": 0, "CLASSIFICATION_TYPE": "U", "NORAD_CAT_ID": 40748, "ELEMENT_SET_NO": 999, "REV_AT_EPOCH": 7058, "BSTAR": 0, "MEAN_MOTION_DOT": -7.5e-07, "MEAN_MOTION_DDOT": 0}, "tle": {"line1": "1 40748U 15037A   25343.24258953 -.00000075  00000+0  00000+0 0  9995", "line2": "2 40748  55.0420 308.5839 0012438 267.3919  92.4547  1.86228936 70588"}}, "geometry": {"type": "Point", "coordinates": [-23.925342823075074, 33.51614618351923]}}, {"type": "Feature", "properties": {"norad_id": 40749, "name": "BEIDOU-3S M1S (C57)", "group": "gnss", "lat": -49.4254667865086, "lon": -176.77771605451653, "alt_km": 21534.498679107637, "timestamp": "2025-12-11T10:53:16.127384+00:00", "meta": {"OBJECT_NAME": "BEIDOU-3S M1S (C57)", "OBJECT_ID": "2015-037B", "EPOCH": "2025-12-08T22:28:18.289056", "MEAN_MOTION": 1.86253835, "ECCENTRICITY": 0.0003421, "INCLINATION": 55.0388, "RA_OF_ASC_NODE": 308.5837, "ARG_OF_PERICENTER": 357.7489, "MEAN_ANOMALY": 2.238, "EPHEMERIS_TYPE": 0, "CLASSIFICATION_TYPE": "U", "NORAD_CAT_ID": 40749, "ELEMENT_SET_NO": 999, "REV_AT_EPOCH": 7058, "BSTAR": 0, "MEAN_MOTION_DOT": -7.4e-07, "MEAN_MOTION_DDOT": 0}, "tle": {"line1": "1 40749U 15037B   25342.93632279 -.00000074  00000+0  00000+0 0  9997", "line2": "2 40749  55.0388 308.5837 0003421 357.7489   2.2380  1.86253835 70588"}}, "geometry": {"type": "Point", "coordinates": [-176.77771605451653, -49.4254667865086]}}, {"type": "Feature", "properties": {"norad_id": 40889, "name": "GSAT0205 (GALILEO 9)", "group": "gnss", "lat": -36.62937817068892, "lon": -164.5556756368819, "alt_km": 23225.367881165603, "timestamp": "2025-12-11T10:53:16.127397+00:00", "meta": {"OBJECT_NAME": "GSAT0205 (GALILEO 9)", "OBJECT_ID": "2015-045A", "EPOCH": "2025-12-10T08:33:32.148576", "MEAN_MOTION": 1.7047308, "ECCENTRICITY": 0.0005904, "INCLINATION": 55.0041, "RA_OF_ASC_NODE": 226.8241, "ARG_OF_PERICENTER": 38.7722, "MEAN_ANOMALY": 321.3515, "EPHEMERIS_TYPE": 0, "CLASSIFICATION_TYPE": "U", "NORAD_CAT_ID": 40889, "ELEMENT_SET_NO": 999, "REV_AT_EPOCH": 6379, "BSTAR": 0, "MEAN_MOTION_DOT": 9e-08, "MEAN_MOTION_DDOT": 0}, "tle": {"line1": "1 40889U 15045A   25344.35662209  .00000009  00000+0  00000+0 0  9992", "line2": "2 40889  55.0041 226.8241 0005904  38.7722 321.3515  1.70473080 63793"}}, "geometry": {"type": "Point", "coordinates": [-164.5556756368819, -36.62937817068892]}}, {"type": "Feature", "properties": {"norad_id": 40890, "name": "GSAT0206 (GALILEO 10)", "group": "gnss", "lat": 1.669305916738596, "lon": 45.62797956021043, "alt_km": 23231.185592735314, "timestamp": "2025-12-11T10:53:16.127408+00:00", "meta": {"OBJECT_NAME": "GSAT0206 (GALILEO 10)", "OBJECT_ID": "2015-045B", "EPOCH": "2025-12-09T23:46:35.187456", "MEAN_MOTION": 1.70473081, "ECCENTRICITY": 0.0003825, "INCLINATION": 55.0033, "RA_OF_ASC_NODE": 226.8293, "ARG_OF_PERICENTER": 36.5835, "MEAN_ANOMALY": 323.5254, "EPHEMERIS_TYPE": 0, "CLASSIFICATION_TYPE": "U", "NORAD_CAT_ID": 40890, "ELEMENT_SET_NO": 999, "REV_AT_EPOCH": 6381, "BSTAR": 0, "MEAN_MOTION_DOT": 9e-08, "MEAN_MOTION_DDOT": 0}, "tle": {"line1": "1 40890U 15045B   25343.99068504  .00000009  00000+0  00000+0 0  9991", "line2": "2 40890  55.0033 226.8293 0003825  36.5835 323.5254  1.70473081 63812"}}, "geometry": {"type": "Point", "coordinates": [45.62797956021043, 1.669305916738596]}}]}